CCSDS_OMM_VERS = 2.0
CREATION_DATE  = 
ORIGINATOR     = 

OBJECT_NAME    = SL-14 R/B
OBJECT_ID      = 1991-042B
CENTER_NAME    = EARTH
REF_FRAME      = TEME
TIME_SYSTEM    = UTC
MEAN_ELEMENT_THEORY = SGP/SGP4

EPOCH          = 2025-12-12T05:48:08.616096
MEAN_MOTION    = 14.81738198
ECCENTRICITY   = .00174121
INCLINATION    = 82.4926
RA_OF_ASC_NODE = 302.1898
ARG_OF_PERICENTER = 163.3848
MEAN_ANOMALY   = 196.7941

EPHEMERIS_TYPE = 0
CLASSIFICATION_TYPE = U
NORAD_CAT_ID   = 21423
ELEMENT_SET_NO = 999
REV_AT_EPOCH   = 84012
BSTAR          = .9066464E-4
MEAN_MOTION_DOT = .74E-5
MEAN_MOTION_DDOT = 0

CCSDS_OMM_VERS = 2.0
CREATION_DATE  = 
ORIGINATOR     = 

OBJECT_NAME    = ERS-1
OBJECT_ID      = 1991-050A
CENTER_NAME    = EARTH
REF_FRAME      = TEME
TIME_SYSTEM    = UTC
MEAN_ELEMENT_THEORY = SGP/SGP4

EPOCH          = 2025-12-12T07:40:33.298176
MEAN_MOTION    = 14.39364103
ECCENTRICITY   = .00330049
INCLINATION    = 98.7906
RA_OF_ASC_NODE = 357.3641
ARG_OF_PERICENTER = 101.2626
MEAN_ANOMALY   = 259.2273

EPHEMERIS_TYPE = 0
CLASSIFICATION_TYPE = U
NORAD_CAT_ID   = 21574
ELEMENT_SET_NO = 999
REV_AT_EPOCH   = 80316
BSTAR          = .18724817E-3
MEAN_MOTION_DOT = .54E-5
MEAN_MOTION_DDOT = 0

CCSDS_OMM_VERS = 2.0
CREATION_DATE  = 
ORIGINATOR     = 

OBJECT_NAME    = ARIANE 40 R/B
OBJECT_ID      = 1991-050F
CENTER_NAME    = EARTH
REF_FRAME      = TEME
TIME_SYSTEM    = UTC
MEAN_ELEMENT_THEORY = SGP/SGP4

EPOCH          = 2025-12-12T03:53:46.330656
MEAN_MOTION    = 14.42812766
ECCENTRICITY   = .00028109
INCLINATION    = 98.2164
RA_OF_ASC_NODE = 36.6135
ARG_OF_PERICENTER = 3.1048
MEAN_ANOMALY   = 357.0160

EPHEMERIS_TYPE = 0
CLASSIFICATION_TYPE = U
NORAD_CAT_ID   = 21610
ELEMENT_SET_NO = 999
REV_AT_EPOCH   = 80637
BSTAR          = .18311154E-3
MEAN_MOTION_DOT = .569E-5
MEAN_MOTION_DDOT = 0

CCSDS_OMM_VERS = 2.0
CREATION_DATE  = 
ORIGINATOR     = 

OBJECT_NAME    = INTERCOSMOS 25
OBJECT_ID      = 1991-086A
CENTER_NAME    = EARTH
REF_FRAME      = TEME
TIME_SYSTEM    = UTC
MEAN_ELEMENT_THEORY = SGP/SGP4

EPOCH          = 2025-12-12T07:19:24.013920
MEAN_MOTION    = 12.11724566
ECCENTRICITY   = .14866561
INCLINATION    = 82.6075
RA_OF_ASC_NODE = 2.8391
ARG_OF_PERICENTER = 305.3328
MEAN_ANOMALY   = 41.7425

EPHEMERIS_TYPE = 0
CLASSIFICATION_TYPE = U
NORAD_CAT_ID   = 21819
ELEMENT_SET_NO = 999
REV_AT_EPOCH   = 48610
BSTAR          = .45977352E-3
MEAN_MOTION_DOT = .2313E-4
MEAN_MOTION_DDOT = 0

CCSDS_OMM_VERS = 2.0
CREATION_DATE  = 
ORIGINATOR     = 

OBJECT_NAME    = SL-8 R/B
OBJECT_ID      = 1992-008B
CENTER_NAME    = EARTH
REF_FRAME      = TEME
TIME_SYSTEM    = UTC
MEAN_ELEMENT_THEORY = SGP/SGP4

EPOCH          = 2025-12-12T07:50:44.675808
MEAN_MOTION    = 13.75958717
ECCENTRICITY   = .0035216
INCLINATION    = 82.9264
RA_OF_ASC_NODE = 332.7534
ARG_OF_PERICENTER = 20.9363
MEAN_ANOMALY   = 95.4239

EPHEMERIS_TYPE = 0
CLASSIFICATION_TYPE = U
NORAD_CAT_ID   = 21876
ELEMENT_SET_NO = 999
REV_AT_EPOCH   = 69740
BSTAR          = .16410875E-3
MEAN_MOTION_DOT = .175E-5
MEAN_MOTION_DDOT = 0

CCSDS_OMM_VERS = 2.0
CREATION_DATE  = 
ORIGINATOR     = 

OBJECT_NAME    = SL-8 R/B
OBJECT_ID      = 1992-020B
CENTER_NAME    = EARTH
REF_FRAME      = TEME
TIME_SYSTEM    = UTC
MEAN_ELEMENT_THEORY = SGP/SGP4

EPOCH          = 2025-12-12T04:54:06.945984
MEAN_MOTION    = 13.75527024
ECCENTRICITY   = .00288538
INCLINATION    = 82.9306
RA_OF_ASC_NODE = 218.7152
ARG_OF_PERICENTER = 179.6350
MEAN_ANOMALY   = 330.1835

EPHEMERIS_TYPE = 0
CLASSIFICATION_TYPE = U
NORAD_CAT_ID   = 21938
ELEMENT_SET_NO = 999
REV_AT_EPOCH   = 68910
BSTAR          = .11944522E-3
MEAN_MOTION_DOT = .131E-5
MEAN_MOTION_DDOT = 0

CCSDS_OMM_VERS = 2.0
CREATION_DATE  = 
ORIGINATOR     = 

OBJECT_NAME    = USA 81
OBJECT_ID      = 1992-023A
CENTER_NAME    = EARTH
REF_FRAME      = TEME
TIME_SYSTEM    = UTC
MEAN_ELEMENT_THEORY = SGP/SGP4

EPOCH          = 2025-12-12T06:22:25.780224
MEAN_MOTION    = 14.32326645
ECCENTRICITY   = .00014366
INCLINATION    = 85.0081
RA_OF_ASC_NODE = 181.8498
ARG_OF_PERICENTER = 64.9465
MEAN_ANOMALY   = 295.1876

EPHEMERIS_TYPE = 0
CLASSIFICATION_TYPE = U
NORAD_CAT_ID   = 21949
ELEMENT_SET_NO = 999
REV_AT_EPOCH   = 8227
BSTAR          = .99266862E-4
MEAN_MOTION_DOT = .288E-5
MEAN_MOTION_DDOT = 0

CCSDS_OMM_VERS = 2.0
CREATION_DATE  = 
ORIGINATOR     = 

OBJECT_NAME    = COSMOS 2219
OBJECT_ID      = 1992-076A
CENTER_NAME    = EARTH
REF_FRAME      = TEME
TIME_SYSTEM    = UTC
MEAN_ELEMENT_THEORY = SGP/SGP4

EPOCH          = 2025-12-12T02:06:40.239936
MEAN_MOTION    = 14.14062535
ECCENTRICITY   = .00190687
INCLINATION    = 71.0582
RA_OF_ASC_NODE = 201.1955
ARG_OF_PERICENTER = 327.7715
MEAN_ANOMALY   = 32.2240

EPHEMERIS_TYPE = 0
CLASSIFICATION_TYPE = U
NORAD_CAT_ID   = 22219
ELEMENT_SET_NO = 999
REV_AT_EPOCH   = 70599
BSTAR          = .6904701E-5
MEAN_MOTION_DOT = -.34E-6
MEAN_MOTION_DDOT = 0

CCSDS_OMM_VERS = 2.0
CREATION_DATE  = 
ORIGINATOR     = 

OBJECT_NAME    = SL-16 R/B
OBJECT_ID      = 1992-076B
CENTER_NAME    = EARTH
REF_FRAME      = TEME
TIME_SYSTEM    = UTC
MEAN_ELEMENT_THEORY = SGP/SGP4

EPOCH          = 2025-12-12T07:07:51.442752
MEAN_MOTION    = 14.16840867
ECCENTRICITY   = .00148075
INCLINATION    = 71.0006
RA_OF_ASC_NODE = 12.4646
ARG_OF_PERICENTER = 234.7634
MEAN_ANOMALY   = 204.4438

EPHEMERIS_TYPE = 0
CLASSIFICATION_TYPE = U
NORAD_CAT_ID   = 22220
ELEMENT_SET_NO = 999
REV_AT_EPOCH   = 70945
BSTAR          = -.18192128E-4
MEAN_MOTION_DOT = -.84E-6
MEAN_MOTION_DDOT = 0

CCSDS_OMM_VERS = 2.0
CREATION_DATE  = 
ORIGINATOR     = 

OBJECT_NAME    = COSMOS 2221
OBJECT_ID      = 1992-080A
CENTER_NAME    = EARTH
REF_FRAME      = TEME
TIME_SYSTEM    = UTC
MEAN_ELEMENT_THEORY = SGP/SGP4

EPOCH          = 2025-12-12T03:34:23.380608
MEAN_MOTION    = 14.95757251
ECCENTRICITY   = .00159963
INCLINATION    = 82.5048
RA_OF_ASC_NODE = 2.8911
ARG_OF_PERICENTER = 123.4412
MEAN_ANOMALY   = 236.8342

EPHEMERIS_TYPE = 0
CLASSIFICATION_TYPE = U
NORAD_CAT_ID   = 22236
ELEMENT_SET_NO = 999
REV_AT_EPOCH   = 76770
BSTAR          = .26637523E-3
MEAN_MOTION_DOT = .3001E-4
MEAN_MOTION_DDOT = 0

CCSDS_OMM_VERS = 2.0
CREATION_DATE  = 
ORIGINATOR     = 

OBJECT_NAME    = SL-16 R/B
OBJECT_ID      = 1992-093B
CENTER_NAME    = EARTH
REF_FRAME      = TEME
TIME_SYSTEM    = UTC
MEAN_ELEMENT_THEORY = SGP/SGP4

EPOCH          = 2025-12-12T00:53:50.004384
MEAN_MOTION    = 14.15428897
ECCENTRICITY   = .00021553
INCLINATION    = 71.0200
RA_OF_ASC_NODE = 188.2702
ARG_OF_PERICENTER = 74.4171
MEAN_ANOMALY   = 285.7189

EPHEMERIS_TYPE = 0
CLASSIFICATION_TYPE = U
NORAD_CAT_ID   = 22285
ELEMENT_SET_NO = 999
REV_AT_EPOCH   = 70075
BSTAR          = .19780263E-3
MEAN_MOTION_DOT = .339E-5
MEAN_MOTION_DDOT = 0

CCSDS_OMM_VERS = 2.0
CREATION_DATE  = 
ORIGINATOR     = 

OBJECT_NAME    = COSMOS 2228
OBJECT_ID      = 1992-094A
CENTER_NAME    = EARTH
REF_FRAME      = TEME
TIME_SYSTEM    = UTC
MEAN_ELEMENT_THEORY = SGP/SGP4

EPOCH          = 2025-12-12T06:56:25.367136
MEAN_MOTION    = 14.96727243
ECCENTRICITY   = .00165414
INCLINATION    = 82.5181
RA_OF_ASC_NODE = 320.9656
ARG_OF_PERICENTER = 233.0177
MEAN_ANOMALY   = 126.9532

EPHEMERIS_TYPE = 0
CLASSIFICATION_TYPE = U
NORAD_CAT_ID   = 22286
ELEMENT_SET_NO = 999
REV_AT_EPOCH   = 76298
BSTAR          = .36365865E-3
MEAN_MOTION_DOT = .419E-4
MEAN_MOTION_DDOT = 0

