SL-14 R/B               
1 21423U 91042B   25346.24176639  .00000740  00000+0  90665-4 0  9996
2 21423  82.4926 302.1898 0017412 163.3848 196.7941 14.81738198840126
ERS-1                   
1 21574U 91050A   25346.31982984  .00000540  00000+0  18725-3 0  9992
2 21574  98.7906 357.3641 0033004 101.2626 259.2273 14.39364103803169
ARIANE 40 R/B           
1 21610U 91050F   25346.16234179  .00000569  00000+0  18311-3 0  9994
2 21610  98.2164  36.6135 0002810   3.1048 357.0160 14.42812766806370
INTERCOSMOS 25          
1 21819U 91086A   25346.30513905  .00002313  00000+0  45977-3 0  9994
2 21819  82.6075   2.8391 1486656 305.3328  41.7425 12.11724566486101
SL-8 R/B                
1 21876U 92008B   25346.32690597  .00000175  00000+0  16411-3 0  9992
2 21876  82.9264 332.7534 0035216  20.9363  95.4239 13.75958717697405
SL-8 R/B                
1 21938U 92020B   25346.20424706  .00000131  00000+0  11945-3 0  9998
2 21938  82.9306 218.7152 0028853 179.6350 330.1835 13.75527024689109
USA 81                  
1 21949U 92023A   25346.26557616  .00000288  00000+0  99267-4 0  9993
2 21949  85.0081 181.8498 0001436  64.9465 295.1876 14.32326645 82279
COSMOS 2219             
1 22219U 92076A   25346.08796574 -.00000034  00000+0  69047-5 0  9994
2 22219  71.0582 201.1955 0019068 327.7715  32.2240 14.14062535705994
SL-16 R/B               
1 22220U 92076B   25346.29712318 -.00000084  00000+0 -18192-4 0  9993
2 22220  71.0006  12.4646 0014807 234.7634 204.4438 14.16840867709451
COSMOS 2221             
1 22236U 92080A   25346.14888172  .00003001  00000+0  26638-3 0  9994
2 22236  82.5048   2.8911 0015996 123.4412 236.8342 14.95757251767703
SL-16 R/B               
1 22285U 92093B   25346.03738431  .00000339  00000+0  19780-3 0  9993
2 22285  71.0200 188.2702 0002155  74.4171 285.7189 14.15428897700754
COSMOS 2228             
1 22286U 92094A   25346.28918249  .00004190  00000+0  36366-3 0  9997
2 22286  82.5181 320.9656 0016541 233.0177 126.9532 14.96727243762983
